{
  "type": "FeatureCollection",
  "features": [
    {
      "type": "Feature",
      "properties": {
        "norad_id": 31491,
        "name": "FENGYUN 1C DEB",
        "group": "fengyun-1c-debris",
        "lat": 30.098416793046898,
        "lon": -111.02692788073287,
        "alt_km": 852.0275364768204,
        "timestamp": "2025-12-11T20:41:15.363643+00:00",
        "meta_object_name": "FENGYUN 1C DEB",
        "meta_object_id": "1999-025BWE",
        "meta_epoch": "2025-12-06T04:59:33.394560",
        "meta_mean_motion": 14.1718589,
        "meta_eccentricity": 0.00532624,
        "meta_inclination": 99.3042,
        "meta_ra_of_asc_node": 248.5122,
        "meta_arg_of_pericenter": 286.6061,
        "meta_mean_anomaly": 72.9267,
        "meta_ephemeris_type": 0,
        "meta_classification_type": "U",
        "meta_norad_cat_id": 31491,
        "meta_element_set_no": 999,
        "meta_rev_at_epoch": 63635,
        "meta_bstar": 0.0031475615,
        "meta_mean_motion_dot": 6.393e-05,
        "meta_mean_motion_ddot": 0,
        "tle_line1": "1 31491U 99025BWE 25340.20802540  .00006393  00000+0  31476-2 0  9991",
        "tle_line2": "2 31491  99.3042 248.5122 0053262 286.6061  72.9267 14.17185890636358"
      },
      "geometry": {
        "type": "Point",
        "coordinates": [
          -111.02692788073287,
          30.098416793046898
        ]
      }
    },
    {
      "type": "Feature",
      "properties": {
        "norad_id": 31492,
        "name": "FENGYUN 1C DEB",
        "group": "fengyun-1c-debris",
        "lat": 64.33320795504125,
        "lon": -9.261311411127522,
        "alt_km": 662.0672807181372,
        "timestamp": "2025-12-11T20:41:15.363653+00:00",
        "meta_object_name": "FENGYUN 1C DEB",
        "meta_object_id": "1999-025BWF",
        "meta_epoch": "2025-12-11T10:22:38.963424",
        "meta_mean_motion": 14.70689468,
        "meta_eccentricity": 0.00645565,
        "meta_inclination": 98.857,
        "meta_ra_of_asc_node": 151.338,
        "meta_arg_of_pericenter": 12.9063,
        "meta_mean_anomaly": 347.3775,
        "meta_ephemeris_type": 0,
        "meta_classification_type": "U",
        "meta_norad_cat_id": 31492,
        "meta_element_set_no": 999,
        "meta_rev_at_epoch": 96487,
        "meta_bstar": 0.0063629624,
        "meta_mean_motion_dot": 0.00040194,
        "meta_mean_motion_ddot": 0,
        "tle_line1": "1 31492U 99025BWF 25345.43239541  .00040194  00000+0  63630-2 0  9991",
        "tle_line2": "2 31492  98.8570 151.3380 0064556  12.9063 347.3775 14.70689468964879"
      },
      "geometry": {
        "type": "Point",
        "coordinates": [
          -9.261311411127522,
          64.33320795504125
        ]
      }
    },
    {
      "type": "Feature",
      "properties": {
        "norad_id": 31493,
        "name": "FENGYUN 1C DEB",
        "group": "fengyun-1c-debris",
        "lat": -45.68249119978237,
        "lon": -57.77096447947474,
        "alt_km": 985.2323498282958,
        "timestamp": "2025-12-11T20:41:15.363663+00:00",
        "meta_object_name": "FENGYUN 1C DEB",
        "meta_object_id": "1999-025BWG",
        "meta_epoch": "2025-12-10T01:49:08.446944",
        "meta_mean_motion": 13.92961332,
        "meta_eccentricity": 0.0116966,
        "meta_inclination": 100.1358,
        "meta_ra_of_asc_node": 289.7193,
        "meta_arg_of_pericenter": 182.7009,
        "meta_mean_anomaly": 177.3529,
        "meta_ephemeris_type": 0,
        "meta_classification_type": "U",
        "meta_norad_cat_id": 31493,
        "meta_element_set_no": 999,
        "meta_rev_at_epoch": 59829,
        "meta_bstar": 0.0011569896,
        "meta_mean_motion_dot": 1.538e-05,
        "meta_mean_motion_ddot": 0,
        "tle_line1": "1 31493U 99025BWG 25344.07579221  .00001538  00000+0  11570-2 0  9998",
        "tle_line2": "2 31493 100.1358 289.7193 0116966 182.7009 177.3529 13.92961332598291"
      },
      "geometry": {
        "type": "Point",
        "coordinates": [
          -57.77096447947474,
          -45.68249119978237
        ]
      }
    },
    {
      "type": "Feature",
      "properties": {
        "norad_id": 31495,
        "name": "FENGYUN 1C DEB",
        "group": "fengyun-1c-debris",
        "lat": 25.724548714438058,
        "lon": -145.44123082455673,
        "alt_km": 809.925340764712,
        "timestamp": "2025-12-11T20:41:15.363673+00:00",
        "meta_object_name": "FENGYUN 1C DEB",
        "meta_object_id": "1999-025BWJ",
        "meta_epoch": "2025-12-10T09:16:50.784096",
        "meta_mean_motion": 14.29184839,
        "meta_eccentricity": 0.00253466,
        "meta_inclination": 99.1197,
        "meta_ra_of_asc_node": 217.4548,
        "meta_arg_of_pericenter": 185.1122,
        "meta_mean_anomaly": 174.9804,
        "meta_ephemeris_type": 0,
        "meta_classification_type": "U",
        "meta_norad_cat_id": 31495,
        "meta_element_set_no": 999,
        "meta_rev_at_epoch": 63357,
        "meta_bstar": 0.0018744955,
        "meta_mean_motion_dot": 4.73e-05,
        "meta_mean_motion_ddot": 0,
        "tle_line1": "1 31495U 99025BWJ 25344.38669889  .00004730  00000+0  18745-2 0  9992",
        "tle_line2": "2 31495  99.1197 217.4548 0025346 185.1122 174.9804 14.29184839633577"
      },
      "geometry": {
        "type": "Point",
        "coordinates": [
          -145.44123082455673,
          25.724548714438058
        ]
      }
    },
    {
      "type": "Feature",
      "properties": {
        "norad_id": 31497,
        "name": "FENGYUN 1C DEB",
        "group": "fengyun-1c-debris",
        "lat": 29.633708359345412,
        "lon": 154.2468479376117,
        "alt_km": 874.8819410337346,
        "timestamp": "2025-12-11T20:41:15.363683+00:00",
        "meta_object_name": "FENGYUN 1C DEB",
        "meta_object_id": "1999-025BWL",
        "meta_epoch": "2025-12-08T05:18:08.352864",
        "meta_mean_motion": 14.39210604,
        "meta_eccentricity": 0.01681658,
        "meta_inclination": 98.3696,
        "meta_ra_of_asc_node": 325.8872,
        "meta_arg_of_pericenter": 356.7424,
        "meta_mean_anomaly": 18.6105,
        "meta_ephemeris_type": 0,
        "meta_classification_type": "U",
        "meta_norad_cat_id": 31497,
        "meta_element_set_no": 999,
        "meta_rev_at_epoch": 97490,
        "meta_bstar": 0.00052392956,
        "meta_mean_motion_dot": 1.867e-05,
        "meta_mean_motion_ddot": 0,
        "tle_line1": "1 31497U 99025BWL 25342.22093001  .00001867  00000+0  52393-3 0  9998",
        "tle_line2": "2 31497  98.3696 325.8872 0168165 356.7424  18.6105 14.39210604974900"
      },
      "geometry": {
        "type": "Point",
        "coordinates": [
          154.2468479376117,
          29.633708359345412
        ]
      }
    },
    {
      "type": "Feature",
      "properties": {
        "norad_id": 31498,
        "name": "FENGYUN 1C DEB",
        "group": "fengyun-1c-debris",
        "lat": -81.32615119956344,
        "lon": 59.20901127000108,
        "alt_km": 1061.566811316413,
        "timestamp": "2025-12-11T20:41:15.363694+00:00",
        "meta_object_name": "FENGYUN 1C DEB",
        "meta_object_id": "1999-025BWM",
        "meta_epoch": "2025-12-07T09:01:34.731552",
        "meta_mean_motion": 13.76971879,
        "meta_eccentricity": 0.02184706,
        "meta_inclination": 98.4853,
        "meta_ra_of_asc_node": 313.3091,
        "meta_arg_of_pericenter": 159.5169,
        "meta_mean_anomaly": 201.4915,
        "meta_ephemeris_type": 0,
        "meta_classification_type": "U",
        "meta_norad_cat_id": 31498,
        "meta_element_set_no": 999,
        "meta_rev_at_epoch": 92660,
        "meta_bstar": 0.0019980316,
        "meta_mean_motion_dot": 2.314e-05,
        "meta_mean_motion_ddot": 0,
        "tle_line1": "1 31498U 99025BWM 25341.37609643  .00002314  00000+0  19980-2 0  9991",
        "tle_line2": "2 31498  98.4853 313.3091 0218470 159.5169 201.4915 13.76971879926605"
      },
      "geometry": {
        "type": "Point",
        "coordinates": [
          59.20901127000108,
          -81.32615119956344
        ]
      }
    },
    {
      "type": "Feature",
      "properties": {
        "norad_id": 31503,
        "name": "FENGYUN 1C DEB",
        "group": "fengyun-1c-debris",
        "lat": 35.86288053826499,
        "lon": -155.5628742481946,
        "alt_km": 845.43233972293,
        "timestamp": "2025-12-11T20:41:15.363705+00:00",
        "meta_object_name": "FENGYUN 1C DEB",
        "meta_object_id": "1999-025BWS",
        "meta_epoch": "2025-12-07T08:28:57.805248",
        "meta_mean_motion": 14.22556904,
        "meta_eccentricity": 0.00490467,
        "meta_inclination": 100.0987,
        "meta_ra_of_asc_node": 206.6798,
        "meta_arg_of_pericenter": 202.0276,
        "meta_mean_anomaly": 157.879,
        "meta_ephemeris_type": 0,
        "meta_classification_type": "U",
        "meta_norad_cat_id": 31503,
        "meta_element_set_no": 999,
        "meta_rev_at_epoch": 64170,
        "meta_bstar": 0.0017221681,
        "meta_mean_motion_dot": 3.84e-05,
        "meta_mean_motion_ddot": 0,
        "tle_line1": "1 31503U 99025BWS 25341.35344682  .00003840  00000+0  17222-2 0  9997",
        "tle_line2": "2 31503 100.0987 206.6798 0049046 202.0276 157.8790 14.22556904641702"
      },
      "geometry": {
        "type": "Point",
        "coordinates": [
          -155.5628742481946,
          35.86288053826499
        ]
      }
    }
  ]
}